{
  "type": "FeatureCollection",
  "features": [
    {
      "type": "Feature",
      "properties": {
        "norad_id": 33376,
        "name": "GALAXY 19 (G-19)",
        "group": "intelsat",
        "lat": 0.03438421782743648,
        "lon": 54.322665604530094,
        "alt_km": 35794.15818030984,
        "timestamp": "2025-12-24T03:53:29.310063+00:00",
        "meta_object_name": "GALAXY 19 (G-19)",
        "meta_object_id": "2008-045A",
        "meta_epoch": "2025-12-23T16:05:42.260064",
        "meta_mean_motion": 1.00270858,
        "meta_eccentricity": 0.0002654,
        "meta_inclination": 0.0449,
        "meta_ra_of_asc_node": 265.3019,
        "meta_arg_of_pericenter": 15.087,
        "meta_mean_anomaly": 316.4894,
        "meta_ephemeris_type": 0,
        "meta_classification_type": "U",
        "meta_norad_cat_id": 33376,
        "meta_element_set_no": 999,
        "meta_rev_at_epoch": 6314,
        "meta_bstar": 0,
        "meta_mean_motion_dot": -1.18e-06,
        "meta_mean_motion_ddot": 0,
        "tle_line1": "1 33376U 08045A   25357.67062801 -.00000118  00000+0  00000+0 0  9990",
        "tle_line2": "2 33376   0.0449 265.3019 0002654  15.0870 316.4894  1.00270858 63145"
      },
      "geometry": {
        "type": "Point",
        "coordinates": [
          54.322665604530094,
          0.03438421782743648
        ]
      }
    },
    {
      "type": "Feature",
      "properties": {
        "norad_id": 35493,
        "name": "FM-5",
        "group": "intelsat",
        "lat": 0.024757332143126014,
        "lon": 65.15388639107759,
        "alt_km": 35786.69497898858,
        "timestamp": "2025-12-24T03:53:29.310075+00:00",
        "meta_object_name": "FM-5",
        "meta_object_id": "2009-034A",
        "meta_epoch": "2025-12-23T13:27:39.384864",
        "meta_mean_motion": 1.00270229,
        "meta_eccentricity": 9.59e-05,
        "meta_inclination": 0.0224,
        "meta_ra_of_asc_node": 290.4125,
        "meta_arg_of_pericenter": 226.9305,
        "meta_mean_anomaly": 50.7811,
        "meta_ephemeris_type": 0,
        "meta_classification_type": "U",
        "meta_norad_cat_id": 35493,
        "meta_element_set_no": 999,
        "meta_rev_at_epoch": 4488,
        "meta_bstar": 0,
        "meta_mean_motion_dot": -1.79e-06,
        "meta_mean_motion_ddot": 0,
        "tle_line1": "1 35493U 09034A   25357.56087251 -.00000179  00000+0  00000+0 0  9992",
        "tle_line2": "2 35493   0.0224 290.4125 0000959 226.9305  50.7811  1.00270229 44886"
      },
      "geometry": {
        "type": "Point",
        "coordinates": [
          65.15388639107759,
          0.024757332143126014
        ]
      }
    },
    {
      "type": "Feature",
      "properties": {
        "norad_id": 36097,
        "name": "INTELSAT 14 (IS-14)",
        "group": "intelsat",
        "lat": 0.03455203719738174,
        "lon": 106.2956004043426,
        "alt_km": 35797.71114561528,
        "timestamp": "2025-12-24T03:53:29.310087+00:00",
        "meta_object_name": "INTELSAT 14 (IS-14)",
        "meta_object_id": "2009-064A",
        "meta_epoch": "2025-12-23T18:03:16.001856",
        "meta_mean_motion": 1.00269399,
        "meta_eccentricity": 0.0002579,
        "meta_inclination": 0.0123,
        "meta_ra_of_asc_node": 2.7287,
        "meta_arg_of_pericenter": 282.3541,
        "meta_mean_anomaly": 33.2641,
        "meta_ephemeris_type": 0,
        "meta_classification_type": "U",
        "meta_norad_cat_id": 36097,
        "meta_element_set_no": 999,
        "meta_rev_at_epoch": 5884,
        "meta_bstar": 0,
        "meta_mean_motion_dot": -2.53e-06,
        "meta_mean_motion_ddot": 0,
        "tle_line1": "1 36097U 09064A   25357.75226854 -.00000253  00000+0  00000+0 0  9994",
        "tle_line2": "2 36097   0.0123   2.7287 0002579 282.3541  33.2641  1.00269399 58840"
      },
      "geometry": {
        "type": "Point",
        "coordinates": [
          106.2956004043426,
          0.03455203719738174
        ]
      }
    },
    {
      "type": "Feature",
      "properties": {
        "norad_id": 36106,
        "name": "INTELSAT 15 (IS-15)",
        "group": "intelsat",
        "lat": -0.025179136150482458,
        "lon": -123.55292776442074,
        "alt_km": 35779.92439404621,
        "timestamp": "2025-12-24T03:53:29.310099+00:00",
        "meta_object_name": "INTELSAT 15 (IS-15)",
        "meta_object_id": "2009-067A",
        "meta_epoch": "2025-12-23T19:22:21.379296",
        "meta_mean_motion": 1.0027099,
        "meta_eccentricity": 0.0002272,
        "meta_inclination": 0.017,
        "meta_ra_of_asc_node": 21.2143,
        "meta_arg_of_pericenter": 263.5803,
        "meta_mean_anomaly": 183.5466,
        "meta_ephemeris_type": 0,
        "meta_classification_type": "U",
        "meta_norad_cat_id": 36106,
        "meta_element_set_no": 999,
        "meta_rev_at_epoch": 3947,
        "meta_bstar": 0,
        "meta_mean_motion_dot": -1.64e-06,
        "meta_mean_motion_ddot": 0,
        "tle_line1": "1 36106U 09067A   25357.80719189 -.00000164  00000+0  00000+0 0  9993",
        "tle_line2": "2 36106   0.0170  21.2143 0002272 263.5803 183.5466  1.00270990 39473"
      },
      "geometry": {
        "type": "Point",
        "coordinates": [
          -123.55292776442074,
          -0.025179136150482458
        ]
      }
    },
    {
      "type": "Feature",
      "properties": {
        "norad_id": 36131,
        "name": "DIRECTV 12",
        "group": "intelsat",
        "lat": 0.000573067928146813,
        "lon": 48.59676606997643,
        "alt_km": 35785.487787323,
        "timestamp": "2025-12-24T03:53:29.310111+00:00",
        "meta_object_name": "DIRECTV 12",
        "meta_object_id": "2009-075A",
        "meta_epoch": "2025-12-23T03:20:33.607968",
        "meta_mean_motion": 1.00270962,
        "meta_eccentricity": 4.713e-05,
        "meta_inclination": 0.0146,
        "meta_ra_of_asc_node": 102.798,
        "meta_arg_of_pericenter": 240.9424,
        "meta_mean_anomaly": 55.6205,
        "meta_ephemeris_type": 0,
        "meta_classification_type": "U",
        "meta_norad_cat_id": 36131,
        "meta_element_set_no": 999,
        "meta_rev_at_epoch": 4478,
        "meta_bstar": 0,
        "meta_mean_motion_dot": -8.2e-07,
        "meta_mean_motion_ddot": 0,
        "tle_line1": "1 36131U 09075A   25357.13927787 -.00000082  00000+0  00000+0 0  9990",
        "tle_line2": "2 36131   0.0146 102.7980 0000471 240.9424  55.6205  1.00270962 44784"
      },
      "geometry": {
        "type": "Point",
        "coordinates": [
          48.59676606997643,
          0.000573067928146813
        ]
      }
    },
    {
      "type": "Feature",
      "properties": {
        "norad_id": 36397,
        "name": "INTELSAT 16 (IS-16)",
        "group": "intelsat",
        "lat": 0.026911726170494598,
        "lon": 75.12220528325724,
        "alt_km": 35793.66127489976,
        "timestamp": "2025-12-24T03:53:29.310123+00:00",
        "meta_object_name": "INTELSAT 16 (IS-16)",
        "meta_object_id": "2010-006A",
        "meta_epoch": "2025-12-23T12:46:10.935264",
        "meta_mean_motion": 1.00272728,
        "meta_eccentricity": 0.0001884,
        "meta_inclination": 0.0115,
        "meta_ra_of_asc_node": 325.676,
        "meta_arg_of_pericenter": 301.9136,
        "meta_mean_anomaly": 300.0848,
        "meta_ephemeris_type": 0,
        "meta_classification_type": "U",
        "meta_norad_cat_id": 36397,
        "meta_element_set_no": 999,
        "meta_rev_at_epoch": 5789,
        "meta_bstar": 0,
        "meta_mean_motion_dot": -2.24e-06,
        "meta_mean_motion_ddot": 0,
        "tle_line1": "1 36397U 10006A   25357.53207101 -.00000224  00000+0  00000+0 0  9993",
        "tle_line2": "2 36397   0.0115 325.6760 0001884 301.9136 300.0848  1.00272728 57891"
      },
      "geometry": {
        "type": "Point",
        "coordinates": [
          75.12220528325724,
          0.026911726170494598
        ]
      }
    },
    {
      "type": "Feature",
      "properties": {
        "norad_id": 37185,
        "name": "XM-5",
        "group": "intelsat",
        "lat": 0.059444389516959635,
        "lon": 36.09248940897251,
        "alt_km": 35789.93309753716,
        "timestamp": "2025-12-24T03:53:29.310136+00:00",
        "meta_object_name": "XM-5",
        "meta_object_id": "2010-053A",
        "meta_epoch": "2025-12-23T00:36:02.072736",
        "meta_mean_motion": 1.00270944,
        "meta_eccentricity": 0.00022817,
        "meta_inclination": 0.0686,
        "meta_ra_of_asc_node": 269.8014,
        "meta_arg_of_pericenter": 238.9496,
        "meta_mean_anomaly": 196.8907,
        "meta_ephemeris_type": 0,
        "meta_classification_type": "U",
        "meta_norad_cat_id": 37185,
        "meta_element_set_no": 999,
        "meta_rev_at_epoch": 5571,
        "meta_bstar": 0,
        "meta_mean_motion_dot": -2e-08,
        "meta_mean_motion_ddot": 0,
        "tle_line1": "1 37185U 10053A   25357.02502399 -.00000002  00000+0  00000+0 0  9996",
        "tle_line2": "2 37185   0.0686 269.8014 0002281 238.9496 196.8907  1.00270944 55715"
      },
      "geometry": {
        "type": "Point",
        "coordinates": [
          36.09248940897251,
          0.059444389516959635
        ]
      }
    }
  ]
}